COSMOS 2576             
1 59773U 24092A   26068.82603826  .00015211  00000+0  56283-3 0  9991
2 59773  97.4253 186.0053 0005946 159.7731 200.3745 15.27760963101271
STARLINK-35877          
1 67049U 25294V   26068.28054183  .00024984  00000+0  91412-3 0  9997
2 67049  43.0030  40.6399 0001878 255.1594 104.9050 15.27588364 14737
